[
    {
        "Altitude(m)": 559781.694685701,
        "Argument of Periapsis(deg)": 0.026491964442854003,
        "Eccentricity": 0.0,
        "Inclination(deg)": 53.0,
        "Latitude(deg)": 52.6256667352204,
        "Longitude(deg)": -167.0343154092477,
        "Mean Anomaly(deg)": 96.73007147031038,
        "RAAN(deg)": 194.9605734741121,
        "Satellite Name": "Starlink Shell 1 861",
        "Satellite Number": 861,
        "Semi-Major Axis(m)": 6931778.249405717,
        "Time(s)": 760
    },
    {
        "Altitude(m)": 559758.7396130856,
        "Argument of Periapsis(deg)": 0.02684054292236524,
        "Eccentricity": 0.0,
        "Inclination(deg)": 53.0,
        "Latitude(deg)": 52.52448015072964,
        "Longitude(deg)": -166.06046474218863,
        "Mean Anomaly(deg)": 97.35690267386704,
        "RAAN(deg)": 194.96005470403458,
        "Satellite Name": "Starlink Shell 1 861",
        "Satellite Number": 861,
        "Semi-Major Axis(m)": 6931778.249405717,
        "Time(s)": 770
    },
    {
        "Altitude(m)": 559733.8009184167,
        "Argument of Periapsis(deg)": 0.027189121401876473,
        "Eccentricity": 0.0,
        "Inclination(deg)": 53.0,
        "Latitude(deg)": 52.41463059758833,
        "Longitude(deg)": -165.09146369825558,
        "Mean Anomaly(deg)": 97.98373387742375,
        "RAAN(deg)": 194.95953593395714,
        "Satellite Name": "Starlink Shell 1 861",
        "Satellite Number": 861,
        "Semi-Major Axis(m)": 6931778.249405717,
        "Time(s)": 780
    },
    {
        "Altitude(m)": 559706.893637311,
        "Argument of Periapsis(deg)": 0.02753769988138771,
        "Eccentricity": 0.0,
        "Inclination(deg)": 53.0,
        "Latitude(deg)": 52.29619458423943,
        "Longitude(deg)": -164.12766154204607,
        "Mean Anomaly(deg)": 98.61056508098049,
        "RAAN(deg)": 194.95901716387962,
        "Satellite Name": "Starlink Shell 1 861",
        "Satellite Number": 861,
        "Semi-Major Axis(m)": 6931778.249405717,
        "Time(s)": 790
    },
    {
        "Altitude(m)": 559678.0339972733,
        "Argument of Periapsis(deg)": 0.02788627836089895,
        "Eccentricity": 0.0,
        "Inclination(deg)": 53.0,
        "Latitude(deg)": 52.16925361155297,
        "Longitude(deg)": -163.16939412637237,
        "Mean Anomaly(deg)": 99.23739628453717,
        "RAAN(deg)": 194.9584983938022,
        "Satellite Name": "Starlink Shell 1 861",
        "Satellite Number": 861,
        "Semi-Major Axis(m)": 6931778.249405717,
        "Time(s)": 800
    },
    {
        "Altitude(m)": 559647.2394097575,
        "Argument of Periapsis(deg)": 0.02823485684041019,
        "Eccentricity": 0.0,
        "Inclination(deg)": 53.0,
        "Latitude(deg)": 52.033893912776314,
        "Longitude(deg)": -162.21698277214495,
        "Mean Anomaly(deg)": 99.86422748809396,
        "RAAN(deg)": 194.95797962372473,
        "Satellite Name": "Starlink Shell 1 861",
        "Satellite Number": 861,
        "Semi-Major Axis(m)": 6931778.249405717,
        "Time(s)": 810
    },
    {
        "Altitude(m)": 559614.5284616798,
        "Argument of Periapsis(deg)": 0.028583435319921423,
        "Eccentricity": 0.0,
        "Inclination(deg)": 53.0,
        "Latitude(deg)": 51.89020618449507,
        "Longitude(deg)": -161.27073323459072,
        "Mean Anomaly(deg)": 100.49105869165058,
        "RAAN(deg)": 194.95746085364723,
        "Satellite Name": "Starlink Shell 1 861",
        "Satellite Number": 861,
        "Semi-Major Axis(m)": 6931778.249405717,
        "Time(s)": 820
    },
    {
        "Altitude(m)": 559579.920906315,
        "Argument of Periapsis(deg)": 0.028932013799432665,
        "Eccentricity": 0.0,
        "Inclination(deg)": 53.0,
        "Latitude(deg)": 51.738285310576515,
        "Longitude(deg)": -160.33093627019673,
        "Mean Anomaly(deg)": 101.11788989520737,
        "RAAN(deg)": 194.95694208356977,
        "Satellite Name": "Starlink Shell 1 861",
        "Satellite Number": 861,
        "Semi-Major Axis(m)": 6931778.249405717,
        "Time(s)": 830
    },
    {
        "Altitude(m)": 559543.4376536768,
        "Argument of Periapsis(deg)": 0.029280592278943897,
        "Eccentricity": 0.0,
        "Inclination(deg)": 53.0,
        "Latitude(deg)": 51.57823008082609,
        "Longitude(deg)": -159.39786677748992,
        "Mean Anomaly(deg)": 101.74472109876407,
        "RAAN(deg)": 194.9564233134923,
        "Satellite Name": "Starlink Shell 1 861",
        "Satellite Number": 861,
        "Semi-Major Axis(m)": 6931778.249405717,
        "Time(s)": 840
    },
    {
        "Altitude(m)": 559505.1007602585,
        "Argument of Periapsis(deg)": 0.029629170758455132,
        "Eccentricity": 0.0,
        "Inclination(deg)": 53.0,
        "Latitude(deg)": 51.41014290612104,
        "Longitude(deg)": -158.471783023163,
        "Mean Anomaly(deg)": 102.3715523023208,
        "RAAN(deg)": 194.95590454341482,
        "Satellite Name": "Starlink Shell 1 861",
        "Satellite Number": 861,
        "Semi-Major Axis(m)": 6931778.249405717,
        "Time(s)": 850
    },
    {
        "Altitude(m)": 559464.9334182643,
        "Argument of Periapsis(deg)": 0.02997774923796637,
        "Eccentricity": 0.0,
        "Inclination(deg)": 53.0,
        "Latitude(deg)": 51.234129531718466,
        "Longitude(deg)": -157.55292763235076,
        "Mean Anomaly(deg)": 102.9983835058775,
        "RAAN(deg)": 194.95538577333735,
        "Satellite Name": "Starlink Shell 1 861",
        "Satellite Number": 861,
        "Semi-Major Axis(m)": 6931778.249405717,
        "Time(s)": 860
    },
    {
        "Altitude(m)": 559422.95994427,
        "Argument of Periapsis(deg)": 0.030326327717477602,
        "Eccentricity": 0.0,
        "Inclination(deg)": 53.0,
        "Latitude(deg)": 51.05029875035151,
        "Longitude(deg)": -156.6415261378061,
        "Mean Anomaly(deg)": 103.62521470943416,
        "RAAN(deg)": 194.95486700325986,
        "Satellite Name": "Starlink Shell 1 861",
        "Satellite Number": 861,
        "Semi-Major Axis(m)": 6931778.249405717,
        "Time(s)": 870
    },
    {
        "Altitude(m)": 559379.2057672861,
        "Argument of Periapsis(deg)": 0.030674906196988847,
        "Eccentricity": 0.0,
        "Inclination(deg)": 53.0,
        "Latitude(deg)": 50.85876211665778,
        "Longitude(deg)": -155.7377881274745,
        "Mean Anomaly(deg)": 104.25204591299091,
        "RAAN(deg)": 194.95434823318237,
        "Satellite Name": "Starlink Shell 1 861",
        "Satellite Number": 861,
        "Semi-Major Axis(m)": 6931778.249405717,
        "Time(s)": 880
    },
    {
        "Altitude(m)": 559333.6974163359,
        "Argument of Periapsis(deg)": 0.031023484676500086,
        "Eccentricity": 0.0,
        "Inclination(deg)": 53.0,
        "Latitude(deg)": 50.65963366437182,
        "Longitude(deg)": -154.84190678413742,
        "Mean Anomaly(deg)": 104.87887711654764,
        "RAAN(deg)": 194.9538294631049,
        "Satellite Name": "Starlink Shell 1 861",
        "Satellite Number": 861,
        "Semi-Major Axis(m)": 6931778.249405717,
        "Time(s)": 890
    },
    {
        "Altitude(m)": 559286.462507427,
        "Argument of Periapsis(deg)": 0.03137206315601132,
        "Eccentricity": 0.0,
        "Inclination(deg)": 53.0,
        "Latitude(deg)": 50.4530296276174,
        "Longitude(deg)": -153.95405849376596,
        "Mean Anomaly(deg)": 105.50570832010436,
        "RAAN(deg)": 194.95331069302748,
        "Satellite Name": "Starlink Shell 1 861",
        "Satellite Number": 861,
        "Semi-Major Axis(m)": 6931778.249405717,
        "Time(s)": 900
    },
    {
        "Altitude(m)": 559237.5297300242,
        "Argument of Periapsis(deg)": 0.03172064163552255,
        "Eccentricity": 0.0,
        "Inclination(deg)": 53.0,
        "Latitude(deg)": 50.239068167525765,
        "Longitude(deg)": -153.07440403079914,
        "Mean Anomaly(deg)": 106.13253952366105,
        "RAAN(deg)": 194.95279192294996,
        "Satellite Name": "Starlink Shell 1 861",
        "Satellite Number": 861,
        "Semi-Major Axis(m)": 6931778.249405717,
        "Time(s)": 910
    },
    {
        "Altitude(m)": 559186.9288329696,
        "Argument of Periapsis(deg)": 0.0320692201150338,
        "Eccentricity": 0.0,
        "Inclination(deg)": 53.0,
        "Latitude(deg)": 50.01786910527872,
        "Longitude(deg)": -152.20308828968118,
        "Mean Anomaly(deg)": 106.75937072721779,
        "RAAN(deg)": 194.95227315287252,
        "Satellite Name": "Starlink Shell 1 861",
        "Satellite Number": 861,
        "Semi-Major Axis(m)": 6931778.249405717,
        "Time(s)": 920
    },
    {
        "Altitude(m)": 559134.6906098693,
        "Argument of Periapsis(deg)": 0.032417798594545036,
        "Eccentricity": 0.0,
        "Inclination(deg)": 53.0,
        "Latitude(deg)": 49.78955366256775,
        "Longitude(deg)": -151.34024007044127,
        "Mean Anomaly(deg)": 107.38620193077449,
        "RAAN(deg)": 194.95175438279506,
        "Satellite Name": "Starlink Shell 1 861",
        "Satellite Number": 861,
        "Semi-Major Axis(m)": 6931778.249405717,
        "Time(s)": 930
    },
    {
        "Altitude(m)": 559080.8468839704,
        "Argument of Periapsis(deg)": 0.03276637707405627,
        "Eccentricity": 0.0,
        "Inclination(deg)": 53.0,
        "Latitude(deg)": 49.55424421033776,
        "Longitude(deg)": -150.48597342598637,
        "Mean Anomaly(deg)": 108.01303313433124,
        "RAAN(deg)": 194.95123561271757,
        "Satellite Name": "Starlink Shell 1 861",
        "Satellite Number": 861,
        "Semi-Major Axis(m)": 6931778.249405717,
        "Time(s)": 940
    }
]